CCSDS_OEM_VERS = 1.0
CREATION_DATE  = 2017-05-11T11:40:38
ORIGINATOR     = GMAT USER

META_START
OBJECT_NAME          = MOPSSat_alt_35785_km_RAAN_180_119
OBJECT_ID            = SatId
CENTER_NAME          = Earth
REF_FRAME            = EME2000
TIME_SYSTEM          = UTC
START_TIME           = 2017-01-01T00:00:00.000
USEABLE_START_TIME   = 2017-01-01T00:00:00.000
USEABLE_STOP_TIME    = 2017-01-02T00:00:00.000
STOP_TIME            = 2017-01-02T00:00:00.000
INTERPOLATION        = Lagrange
INTERPOLATION_DEGREE = 7 
META_STOP


                                                                                   

2017-01-01T17:43:20.000   2.679709096274315e+04   3.789004924069676e+04  -2.851748198836969e+00  -2.631449246590230e+00   8.939602600113205e-01   5.143176991411529e-05
2017-01-01T17:43:30.000   2.677077112721506e+04   3.789898128608620e+04  -2.851233229019441e+00  -2.632517724751215e+00   8.924486127178091e-01   5.156220208467659e-05
2017-01-01T17:43:40.000   2.674444060993179e+04   3.790789820919109e+04  -2.850716954606020e+00  -2.633585698037587e+00   8.909358370953652e-01   5.169269105924204e-05
2017-01-01T17:43:50.000   2.671809941567959e+04   3.791679999881548e+04  -2.850199375023523e+00  -2.634653165553242e+00   8.894219325287568e-01   5.182323681910763e-05
2017-01-01T17:44:00.000   2.669174754931402e+04   3.792568664373690e+04  -2.849680489700142e+00  -2.635720126398092e+00   8.879068984060520e-01   5.195383934519437e-05
2017-01-01T17:44:10.000   2.666538501562585e+04   3.793455813275216e+04  -2.849160298062842e+00  -2.636786579673514e+00   8.863907341109255e-01   5.208449861871741e-05
2017-01-01T17:44:20.000   2.663901181968103e+04   3.794341445456049e+04  -2.848638799543914e+00  -2.637852524468473e+00   8.848734390421392e-01   5.221521461948856e-05
2017-01-01T17:44:30.000   2.661262796656867e+04   3.795225559785080e+04  -2.848115993576161e+00  -2.638917959869842e+00   8.833550125991283e-01   5.234598732717720e-05
2017-01-01T17:44:40.000   2.658623346140063e+04   3.796108155130101e+04  -2.847591879592826e+00  -2.639982884962375e+00   8.818354541819365e-01   5.247681672130871e-05
2017-01-01T17:44:50.000   2.655982830956652e+04   3.796989230349509e+04  -2.847066457032804e+00  -2.641047298818529e+00   8.803147632059799e-01   5.260770278001139e-05
2017-01-01T17:45:00.000   2.653341251639074e+04   3.797868784303552e+04  -2.846539725333698e+00  -2.642111200512193e+00   8.787929390822244e-01   5.273864548170525e-05
2017-01-01T17:45:10.000   2.650698608726735e+04   3.798746815849870e+04  -2.846011683934527e+00  -2.643174589113263e+00   8.772699812249793e-01   5.286964480443690e-05
2017-01-01T17:45:20.000   2.648054902706387e+04   3.799623323863322e+04  -2.845482332263819e+00  -2.644237463711648e+00   8.757458890175348e-01   5.300070072882250e-05
2017-01-01T17:45:30.000   2.645410134071756e+04   3.800498307216146e+04  -2.844951669751517e+00  -2.645299823393254e+00   8.742206618465148e-01   5.313181323510516e-05
2017-01-01T17:45:40.000   2.642764303310062e+04   3.801371764782473e+04  -2.844419695826307e+00  -2.646361667245425e+00   8.726942990941325e-01   5.326298230381722e-05
2017-01-01T17:45:50.000   2.640117410936165e+04   3.802243695426804e+04  -2.843886409922326e+00  -2.647422994343114e+00   8.711668001578021e-01   5.339420791410181e-05
2017-01-01T17:46:00.000   2.637469457467262e+04   3.803114098012624e+04  -2.843351811474237e+00  -2.648483803759161e+00   8.696381644356250e-01   5.352549004495318e-05
2017-01-01T17:46:10.000   2.634820443422830e+04   3.803982971402317e+04  -2.842815899917155e+00  -2.649544094564269e+00   8.681083913263296e-01   5.365682867522397e-05
2017-01-01T17:46:20.000   2.632170369350249e+04   3.804850314449015e+04  -2.842278674691979e+00  -2.650603865816865e+00   8.665774802441303e-01   5.378822378234350e-05
2017-01-01T17:46:30.000   2.629519235790353e+04   3.805716126007657e+04  -2.841740135238279e+00  -2.651663116576778e+00   8.650454305987733e-01   5.391967534403639e-05
2017-01-01T17:46:40.000   2.626867043291241e+04   3.806580404930522e+04  -2.841200280997139e+00  -2.652721845899728e+00   8.635122418035328e-01   5.405118333763446e-05
2017-01-01T17:46:50.000   2.624213792347431e+04   3.807443150087073e+04  -2.840659111398760e+00  -2.653780052861625e+00   8.619779132400327e-01   5.418274774310185e-05
2017-01-01T17:47:00.000   2.621559483460859e+04   3.808304360344043e+04  -2.840116625874876e+00  -2.654837736534203e+00   8.604424442935035e-01   5.431436854000278e-05
2017-01-01T17:47:10.000   2.618904117125135e+04   3.809164034570599e+04  -2.839572823855562e+00  -2.655894895991315e+00   8.589058343436964e-01   5.444604570828390e-05
2017-01-01T17:47:20.000   2.616247693867836e+04   3.810022171624438e+04  -2.839027704777765e+00  -2.656951530291986e+00   8.573680827892882e-01   5.457777922617280e-05
2017-01-01T17:47:30.000   2.613590214215632e+04   3.810878770363282e+04  -2.838481268078292e+00  -2.658007638494404e+00   8.558291890277646e-01   5.470956907191134e-05
2017-01-01T17:47:40.000   2.610931678702067e+04   3.811733829642306e+04  -2.837933513195368e+00  -2.659063219652785e+00   8.542891524599050e-01   5.484141522336878e-05
2017-01-01T17:47:50.000   2.608272087865512e+04   3.812587348314942e+04  -2.837384439568299e+00  -2.660118272818268e+00   8.527479724886412e-01   5.497331765814441e-05
2017-01-01T17:48:00.000   2.605611442246458e+04   3.813439325233626e+04  -2.836834046636846e+00  -2.661172797039910e+00   8.512056485174526e-01   5.510527635370076e-05
2017-01-01T17:48:10.000   2.602949742386567e+04   3.814289759250137e+04  -2.836282333841043e+00  -2.662226791365093e+00   8.496621799498236e-01   5.523729128741014e-05
2017-01-01T17:48:20.000   2.600286988819186e+04   3.815138649218663e+04  -2.835729300619259e+00  -2.663280254843286e+00   8.481175661837621e-01   5.536936243702689e-05
2017-01-01T17:48:30.000   2.597623182075657e+04   3.815985993993730e+04  -2.835174946409468e+00  -2.664333186523526e+00   8.465718066154294e-01   5.550148978037182e-05
2017-01-01T17:48:40.000   2.594958322685320e+04   3.816831792430211e+04  -2.834619270649259e+00  -2.665385585454404e+00   8.450249006391584e-01   5.563367329533361e-05
2017-01-01T17:48:50.000   2.592292411169124e+04   3.817676043385269e+04  -2.834062272774455e+00  -2.666437450686565e+00   8.434768476437172e-01   5.576591296017802e-05
2017-01-01T17:49:00.000   2.589625448049196e+04   3.818518745715404e+04  -2.833503952221154e+00  -2.667488781268946e+00   8.419276470178778e-01   5.589820875308207e-05
2017-01-01T17:49:10.000   2.586957433849802e+04   3.819359898276136e+04  -2.832944308425924e+00  -2.668539576248407e+00   8.403772981509847e-01   5.603056065208198e-05
2017-01-01T17:49:20.000   2.584288369099946e+04   3.820199499921078e+04  -2.832383340826289e+00  -2.669589834668642e+00   8.388258004344287e-01   5.616296863495667e-05
2017-01-01T17:49:30.000   2.581618254335578e+04   3.821037549501386e+04  -2.831821048861277e+00  -2.670639555569381e+00   8.372731532629724e-01   5.629543267910524e-05
2017-01-01T17:49:40.000   2.578947090091723e+04   3.821874045868174e+04  -2.831257431969721e+00  -2.671688737989458e+00   8.357193560301533e-01   5.642795276194269e-05
2017-01-01T17:49:50.000   2.576274876937764e+04   3.822708987861640e+04  -2.830692489597822e+00  -2.672737380953033e+00   8.341644081488706e-01   5.656052885913459e-05
2017-01-01T17:50:00.000   2.573601615434713e+04   3.823542374324278e+04  -2.830126221190019e+00  -2.673785483486298e+00   8.326083090264639e-01   5.669316094673169e-05
2017-01-01T17:50:10.000   2.570927306151079e+04   3.824374204095941e+04  -2.829558626192372e+00  -2.674833044611247e+00   8.310510580739701e-01   5.682584900037678e-05
2017-01-01T17:50:20.000   2.568251949601374e+04   3.825204476033008e+04  -2.828989704039522e+00  -2.675880063369787e+00   8.294926546703173e-01   5.695859299836923e-05
2017-01-01T17:50:30.000   2.565575546307460e+04   3.826033188989250e+04  -2.828419454167681e+00  -2.676926538799683e+00   8.279330981980343e-01   5.709139291860833e-05
2017-01-01T17:50:40.000   2.562898096784662e+04   3.826860341820200e+04  -2.827847876011722e+00  -2.677972469940012e+00   8.263723880351791e-01   5.722424873928619e-05
2017-01-01T17:50:50.000   2.560219601576302e+04   3.827685933372220e+04  -2.827274969012394e+00  -2.679017855817542e+00   8.248105235753970e-01   5.735716043716156e-05
2017-01-01T17:51:00.000   2.557540061228113e+04   3.828509962490681e+04  -2.826700732611012e+00  -2.680062695456866e+00   8.232475042130758e-01   5.749012798884220e-05
2017-01-01T17:51:10.000   2.554859476288170e+04   3.829332428019871e+04  -2.826125166249396e+00  -2.681106987880367e+00   8.216833293432881e-01   5.762315137078316e-05
2017-01-01T17:51:20.000   2.552177847332818e+04   3.830153328795292e+04  -2.825548269375569e+00  -2.682150732098244e+00   8.201179983769807e-01   5.775623055801327e-05
2017-01-01T17:51:30.000   2.549495174931812e+04   3.830972663654127e+04  -2.824970041436140e+00  -2.683193927121972e+00   8.185515107205751e-01   5.788936552585150e-05
2017-01-01T17:51:40.000   2.546811459662042e+04   3.831790431431083e+04  -2.824390481879294e+00  -2.684236571958977e+00   8.169838657839871e-01   5.802255624923118e-05
2017-01-01T17:51:50.000   2.544126702046972e+04   3.832606630976856e+04  -2.823809590141708e+00  -2.685278665636183e+00   8.154150629452597e-01   5.815580270569156e-05
2017-01-01T17:52:00.000   2.541440902617186e+04   3.833421261139662e+04  -2.823227365661619e+00  -2.686320207176457e+00   8.138451015859202e-01   5.828910487238645e-05
2017-01-01T17:52:10.000   2.538754061896725e+04   3.834234320769425e+04  -2.822643807875897e+00  -2.687361195603947e+00   8.122739810830113e-01   5.842246272675739e-05
2017-01-01T17:52:20.000   2.536066180437742e+04   3.835045808707051e+04  -2.822058916227415e+00  -2.688401629930514e+00   8.107017008292792e-01   5.855587624482726e-05
